STARLINK-11233 [DTC]    
1 61061U 24164M   24271.91668981 -.00992111  00000+0 -51518-2 0  9991
2 61061  53.1664  33.6220 0001200  68.0026  81.9067 15.82770462  3569
STARLINK-11236 [DTC]    
1 61062U 24164N   24271.91668981 -.00988055  00000+0 -48554-2 0  9990
2 61062  53.1667  33.5910 0000950  70.2414  94.4408 15.83916808  3380
STARLINK-32350          
1 61063U 24164P   24272.25001157 -.01311500  00000+0 -11245-1 0  9997
2 61063  53.1598  32.3758 0000831  75.7029 322.3439 15.71495375  3555
STARLINK-32378          
1 61064U 24164Q   24272.25001157 -.01310700  00000+0 -11237-1 0  9990
2 61064  53.1599  32.3679 0000946  67.9204 333.9592 15.71494998  3541
STARLINK-32321          
1 61065U 24164R   24271.91668981 -.01355702  00000+0 -11179-1 0  9993
2 61065  53.1608  34.0235 0000750  42.0946 270.4318 15.72502510  3553
STARLINK-32381          
1 61066U 24164S   24272.25001157 -.01315513  00000+0 -11282-1 0  9999
2 61066  53.1601  32.3643 0000921  66.5950 337.2002 15.71497718  3551
STARLINK-32368          
1 61067U 24164T   24271.91668981 -.01360042  00000+0 -11218-1 0  9992
2 61067  53.1604  34.0113 0000808  62.1258 256.1502 15.72504517  3510
STARLINK-32385          
1 61068U 24164U   24272.25001157 -.01317918  00000+0 -11305-1 0  9998
2 61068  53.1597  32.3484 0000758  73.7082 337.7525 15.71499422  3597
STARLINK-32380          
1 61069U 24164V   24271.91668981 -.01359551  00000+0 -11214-1 0  9993
2 61069  53.1609  34.0036 0000663  66.2181 255.8905 15.72504738  3518
STARLINK-32375          
1 61070U 24164W   24271.91668981 -.01358982  00000+0 -11209-1 0  9996
2 61070  53.1608  34.0077 0000648  64.1272 256.0651 15.72504297  3550
STARLINK-11209 [DTC]    
1 61200U 24171A   24272.16668981 -.00787625  00000+0 -34372-2 0  9993
2 61200  53.1642 258.9410 0000689 104.7265 328.6139 15.85881222  2410
STARLINK-11257 [DTC]    
1 61201U 24171B   24272.16668981 -.00733253  00000+0 -30679-2 0  9998
2 61201  53.1640 258.9245 0000610 105.8256 335.4842 15.86611979  2419
STARLINK-11309 [DTC]    
1 61202U 24171C   24272.16668981 -.00689758  00000+0 -27835-2 0  9999
2 61202  53.1639 258.9094 0000609 106.2561 342.3099 15.87241771  2413
STARLINK-11292 [DTC]    
1 61203U 24171D   24271.91668981 -.00604359  00000+0 -23138-2 0  9998
2 61203  53.1641 260.1601 0000787 127.2999 337.7991 15.88101891  2396
STARLINK-11302 [DTC]    
1 61204U 24171E   24271.91668981 -.00576527  00000+0 -21470-2 0  9991
2 61204  53.1640 260.1473 0000750 124.0622 347.1864 15.88590473  2393
STARLINK-11277 [DTC]    
1 61205U 24171F   24271.91668981 -.00523268  00000+0 -18581-2 0  9995
2 61205  53.1639 260.1267 0000960 130.7468 350.3230 15.89411301  2394
STARLINK-11279 [DTC]    
1 61206U 24171G   24272.16668981 -.00552752  00000+0 -19568-2 0  9990
2 61206  53.1638 258.8489 0000524 109.0712   8.6716 15.89539568  2412
STARLINK-11091 [DTC]    
1 61207U 24171H   24272.16668981 -.00593442  00000+0 -21982-2 0  9995
2 61207  53.1636 258.8717 0000520 103.6744   3.1045 15.88736004  2368
STARLINK-11291 [DTC]    
1 61208U 24171J   24271.91668981 -.00486650  00000+0 -16581-2 0  9999
2 61208  53.1638 260.1064 0000704 122.1958   8.7669 15.90142174  2397
STARLINK-11304 [DTC]    
1 61209U 24171K   24272.25001157 -.00508468  00000+0 -17369-2 0  9991
2 61209  53.1632 258.4058 0000631 113.5073 131.3216 15.90140558  2436
STARLINK-11307 [DTC]    
1 61210U 24171L   24272.16668981 -.00506106  00000+0 -16919-2 0  9994
2 61210  53.1636 258.8186 0000750 111.8122  20.4176 15.90555577  2418
STARLINK-11298 [DTC]    
1 61211U 24171M   24271.91668981 -.00463475  78313-4 -14196-2 0  9990
2 61211  53.1640 260.0790 0000745 116.8350  27.2916 15.91077941  2391
STARLINK-11310 [DTC]    
1 61212U 24171N   24271.91668981 -.00447384  74027-4 -13519-2 0  9998
2 61212  53.1638 260.0719 0000729 114.3581  33.1981 15.91334121  2395
STARLINK-32386          
1 61213U 24171P   24272.16668981 -.01061588  00000+0 -51402-2 0  9994
2 61213  53.1628 258.9201 0000781  89.7174 353.2793 15.84409345  2422
STARLINK-32392          
1 61214U 24171Q   24272.16668981 -.01105765  00000+0 -53585-2 0  9995
2 61214  53.1629 258.9067 0000971  78.1652  11.2075 15.84502400  2417
STARLINK-32436          
1 61215U 24171R   24272.16668981 -.01084207  00000+0 -52523-2 0  9994
2 61215  53.1629 258.9134 0000795  96.5595 349.7492 15.84456268  2419
STARLINK-32425          
1 61216U 24171S   24272.16668981 -.01143042  00000+0 -54391-2 0  9993
2 61216  53.1631 258.9011 0000759  98.7513 353.3956 15.84545054  2419
STARLINK-32342          
1 61217U 24171T   24272.16668981 -.01167955  00000+0 -55602-2 0  9999
2 61217  53.1630 258.8945 0000779 102.1405 353.3250 15.84587649  2419
STARLINK-32423          
1 61218U 24171U   24272.16668981 -.01181035  00000+0 -56182-2 0  9999
2 61218  53.1629 258.8897 0000744 107.1118 350.6253 15.84631187  2412
STARLINK-32248          
1 61219U 24171V   24272.16668981 -.01186184  00000+0 -56337-2 0  9992
2 61219  53.1632 258.8864 0000720  96.2425   3.1391 15.84675184  2412
